[{"OBJECT_NAME":"MAROC-TUBSAT","OBJECT_ID":"2001-056D","EPOCH":"2026-03-09T22:30:04.167072","MEAN_MOTION":13.70257966,"ECCENTRICITY":0.00202743,"INCLINATION":99.801,"RA_OF_ASC_NODE":243.9412,"ARG_OF_PERICENTER":39.0163,"MEAN_ANOMALY":116.8621,"EPHEMERIS_TYPE":0,"CLASSIFICATION_TYPE":"U","NORAD_CAT_ID":27004,"ELEMENT_SET_NO":999,"REV_AT_EPOCH":21259,"BSTAR":2.5577729e-5,"MEAN_MOTION_DOT":-2.4e-7,"MEAN_MOTION_DDOT":0},{"OBJECT_NAME":"COSMOS 883","OBJECT_ID":"1976-122A","EPOCH":"2026-03-09T20:26:23.697888","MEAN_MOTION":13.76350689,"ECCENTRICITY":0.00353188,"INCLINATION":82.9571,"RA_OF_ASC_NODE":338.3409,"ARG_OF_PERICENTER":130.8674,"MEAN_ANOMALY":229.5553,"EPHEMERIS_TYPE":0,"CLASSIFICATION_TYPE":"U","NORAD_CAT_ID":9610,"ELEMENT_SET_NO":999,"REV_AT_EPOCH":47130,"BSTAR":7.42971e-5,"MEAN_MOTION_DOT":8.8e-7,"MEAN_MOTION_DDOT":0}]
